1 02766U 67040B   26092.26773712  .00000703  00000-0  00000-0 4    10
2 02766  36.2119   6.3885 4562448 120.6451  11.3743  0.21277458    13
1 02770U 67040F   26086.34929307 -.00000294  00000-0  00000-0 4    16
2 02770  16.7274 209.7672 7932295 350.8160 272.7158  0.50947979    11
1 02775U 66087D   26095.96036122  .00008180  63069-1  14973+0 4    12
2 02775 100.9220 103.5597 0114789 273.4832 141.8335 12.72319081    16
1 02777U 67034C   26092.36136139  .00002707  22324+0  11943+0 4    17
2 02777  90.2878 242.9400 0128274 353.4155  34.1140 14.06564384    15
1 02778U 67034D   26096.11017830 -.00001533  12361+0  10215+0 4    19
2 02778  89.8535  38.5761 0118695 192.8985 299.1066 13.36046527    17
1 02796U 63014AQ  26096.45317706 -.00000568  00000-0  00000-0 4    12
2 02796  87.2030  93.8630 0559408 242.7103 286.3738  8.68605657    14
1 02799U 65082KX  26096.28349155  .00001210  23515-1  23740-1 4    14
2 02799  32.0568  57.3978 0031320 345.0895 159.8190 14.72871058    12
1 02801U 67045A   26096.34724559 -.00001718 -11880-1 -56398-2 4    15
2 02801  74.0421 197.1242 0065085  66.0034 350.0641 14.37652833    12
1 02802U 67045B   26096.28909981 -.00000663 -18443+0  24248-1 4    18
2 02802  74.0111 296.5429 0056250 301.4315 232.0490 14.46371889    12
1 02807U 67048A   26096.28832723 -.00001102  43219-1  34632-1 4    12
2 02807  89.6787 350.2743 0028774 124.6948   1.0546 13.51554922    14
1 02811U 67048B   26096.24253426 -.00000451  36878-1  43026-1 4    16
2 02811  89.6836 353.2412 0017633 169.5314 306.1742 13.50124489    14
1 02825U 67053B   26096.37863729  .00000461 -14563-1  50789-1 4    16
2 02825  69.9729 227.7021 0000580 202.7961 176.2692 13.98279755    12
1 02826U 67053A   26096.41418104  .00008682  93871-1  14242+0 4    18
2 02826  69.9174 214.0689 0008373 101.7203 293.8791 14.77431258    13
1 02828U 67053C   26096.33225678  .00000123  10946-1  27027-1 4    14
2 02828  69.9724 217.2863 0001297 218.5675 172.2019 13.98636491    14
1 02834U 67053D   26095.97614741  .00000519 -12253+0  69382-1 4    14
2 02834  69.9725 287.6718 0004009   9.5879 102.6697 13.96743759    13
1 02847U 67053E   26096.15510493 -.00000326  33887-1  40173-1 4    19
2 02847  69.9689   3.2429 0011156 123.6055 350.4295 14.03526216    15
1 02861U 67065A   26095.06626273  .00000243  00000-0  00000-0 4    12
2 02861  89.9805 314.1533 0073796 166.3083 354.4325  8.36923990    13
1 02862U 67066A   26095.68842981 -.00000299  00000-0  00000-0 4    10
2 02862   2.6886  97.4535 0063852 243.0948 175.4367  1.09953549    16
1 02863U 67066B   26096.29766738 -.00000069  00000-0  00000-0 4    19
2 02863   2.6762  96.8562 0062044 240.7426 234.4929  1.09890538    18
1 02864U 67066C   26096.38086774  .00000085  00000-0  00000-0 4    12
2 02864   2.6084  98.1323 0058547 233.3129 330.3267  1.09783523    13
1 02865U 67066D   26096.11653331 -.00000510  00000-0  00000-0 4    17
2 02865   2.5433  98.1011 0054723 223.2442 350.3881  1.09623303    16
1 02866U 67066E   26096.34689426  .00000134  00000-0  00000-0 4    18
2 02866   2.4457  98.9048 0054780 211.0337 167.7559  1.09422555    19
1 02867U 67066F   26096.40530785 -.00000230  00000-0  00000-0 4    17
2 02867   2.3181 100.4267 0053285 190.6294 142.3327  1.09162396    14
1 02868U 67066G   26096.36864769 -.00000073  00000-0  00000-0 4    10
2 02868   2.1777 100.5554 0083398 171.7553 323.7718  1.08901088    17
1 02872U 67053F   26096.34815457 -.00000199 -13139-1  30199-1 4    10
2 02872  69.9740 155.5208 0006873 149.9779 286.3802 14.00150718    19
1 02873U 67053G   26096.35595347 -.00000068 -21555-1 -27663-1 4    14
2 02873  69.9759 204.4258 0003036 185.7531 231.8690 13.99077863    17
1 02874U 67053H   26096.44748051  .00000055 -12362+0 -25047-1 4    10
2 02874  69.9739 269.0701 0002325 358.1499  28.4076 13.97381935    19
1 02876U 67065B   26096.09883727 -.00000257  00000-0  00000-0 4    17
2 02876  89.9791 313.3561 0071834 167.7451 352.0860  8.36823067    12
1 02877U 67065C   26096.04255801  .00000746  00000-0  00000-0 4    11
2 02877  89.9798 313.6721 0067268 156.9344   4.3636  8.36871123    12
1 02886U 63047K   26095.54807973  .00010152  63810-1  43497-1 4    13
2 02886  29.8693 183.4518 0645691  34.4763  72.6101 13.28994149    19
1 02888U 65089D   26091.93937486  .00003179  47471-1  13534-1 4    10
2 02888  59.2028 162.1570 0714421 202.8407 340.8716 11.87555286    16
1 02889U 66005E   26096.12967612 -.00000661  52696-1  67150+0 4    10
2 02889  89.5417 161.1530 0165382 359.1655  33.1198 13.18751682    17
1 02920U 67080A   26096.18441310 -.00000438  95706-1 -15292-2 4    13
2 02920  98.5947 308.7470 0035011 186.4527 286.7589 14.16133289    13
1 02934U 65020EM  26096.09222591 -.00000143  26641+0 -24043+0 4    12
2 02934  55.5953   3.9522 0355641 149.4028 329.6666 12.50952912    10
1 02940U 67080B   26096.29460985  .00000482 -52026+0  57998-1 4    18
2 02940  98.5398 285.7598 0047062  62.7059 110.4231 14.18085236    12
1 02949U 63014AS  26096.24892977  .00020128  25862+1  70439+1 4    16
2 02949  85.4684  12.4525 2251769 169.5697 350.8282  8.85454238    11
1 02965U 67092A   26096.33777852  .00000978  42248-1  37824-1 4    19
2 02965  89.2592  15.7321 0035629 261.2586 215.4445 13.54292250    12
1 02967U 67092B   26096.30952207  .00003101  25213-1  34249-1 4    19
2 02967  89.2601  14.5639 0038244 321.9064 154.1386 13.53192030    12
1 02969U 67094A   26096.39872837  .00000283  00000-0  00000-0 4    13
2 02969   3.8761  75.0708 0009929 147.6302  12.8584  1.00373344    16
1 02971U 67094C   26096.46095880  .00107229  51653-1  29457-1 4    16
2 02971  28.0737 218.8719 6546838  51.3610   0.5290  3.22235456    19
1 02976U 67036C   26095.97762375 -.00000046  57542-1 -25544+0 4    17
2 02976 102.1644 247.1491 0089058 262.1501 217.5717 12.82721020    15
1 02977U 67036D   26094.43916912  .00000438  16385-2  25722-1 4    10
2 02977 101.6098  59.4729 0067685  56.7528  64.7134 12.57460098    11
1 02980U 67096A   26096.44102116 -.00002284  61747-2  16131-1 4    14
2 02980  99.1841 164.2515 0087981 336.5434  41.9661 14.63817542    17
1 02985U 67096B   26096.07265039  .00001540  57970-1  19652-1 4    18
2 02985  99.1657 122.7390 0071466 291.1698  89.3462 14.70347817    12
1 02986U 64026E   26096.24501435  .00002470 -84912-1  19362-1 4    19
2 02986  90.4799 188.5533 0058207  93.8729 293.9742 14.07394694    12
1 02989U 66005F   26095.00541478 -.00001469  10024+1  94354-1 4    18
2 02989  89.6564 287.0053 0119116 119.4253  33.4487 14.01464754    13
1 02994U 67092C   26095.68009432 -.00002077  11422+0  82672-1 4    12
2 02994  89.4416 349.6687 0100932  75.9774 313.9400 13.98270284    10
1 02997U 63014AU  26094.20636157 -.00006195  00000-0  00000-0 4    12
2 02997  86.7628 173.9752 0928676 319.8388  54.8920  8.78306233    17
1 03029U 67111A   26096.36596100  .00000373  00000-0  00000-0 4    14
2 03029   2.9759  79.4187 0015091  30.3522 111.3526  1.00265294    14
1 03035U 67114A   26096.24983971 -.00000482  85611-2 -22727-1 4    14
2 03035 102.0069 200.2285 0039343 258.4676 128.6768 12.54836622    18
1 03036U 67114B   26096.26886689  .00001410  10442-1 -41043-1 4    17
2 03036 102.0043 196.4753 0038453 277.3382 146.2242 12.54726111    16
1 03038U 65020EN  26096.39829605  .00004684  37577-1  15003+0 4    10
2 03038  56.1671 235.0565 0386846  21.5836  11.1152 14.21812269    16
1 03045U 65070G   26096.39062569  .00004081  10507+0  18334+0 4    14
2 03045  55.4281  76.0215 0295946  56.6613  94.2105 12.44609982    19
1 03047U 67116A   26096.41757597  .00000611  28879-1  14186-1 4    15
2 03047  74.0120 152.2669 0009531  35.8727 334.9130 14.58287144    19
1 03048U 67116B   26096.45113183  .00000355 -43542-1  17742-1 4    18
2 03048  74.0093 347.2191 0015563 103.1480  69.3292 14.64093126    12
1 03051U 67114C   26096.40088785  .00001099  44873-2 -10020-1 4    11
2 03051 101.1575  72.5451 0079744 262.0283 253.6728 12.62898169    15
1 03081U 67127A   26096.31612414 -.00000104  19812+0  58339-1 4    13
2 03081  65.1416 109.7587 0021902 107.5277 263.9901 13.93793905    17
1 03093U 68002A   26096.27781750  .00003501  16763-1  22356-2 4    12
2 03093 105.7980 319.4214 0313090 221.3738 252.4484 12.84155947    19
1 03094U 68002B   26096.39780059 -.00003891 -94059-2 -20519+0 4    13
2 03094 105.8011  35.5884 0315911 161.7213 315.6142 12.85837600    11
1 03122U 67092D   26095.97877681 -.00006479  23482+0  21573+0 4    17
2 03122  89.0536  94.7918 0197152  67.4171 346.3083 13.26741919    11
1 03123U 67114D   26096.29777411  .00000916  79367-2  33780-1 4    19
2 03123 102.4626 228.4107 0034376  47.3535 342.3830 12.48679405    16
1 03124U 61015HX  26096.37770514 -.00005014  43114+0  71110+0 4    10
2 03124  66.9864  87.4272 0314135 130.2445 344.6850 13.58096558    18
1 03125U 61015HY  26096.29974727 -.00012310  76938-1  45842+0 4    16
2 03125  67.5598  46.4631 0306762 101.1989  21.2740 13.28005013    10
1 03126U 68002C   26094.54964274  .00007489  62378-1  94818-1 4    14
2 03126 106.0579  13.2037 0313055 277.9639 260.8579 12.83013762    19
1 03127U 68002D   26095.58600170  .00012318  33674-1  64850-1 4    19
2 03127 105.3116 217.5661 0329500  67.5939 315.5707 12.85457659    19
1 03129U 68011A   26096.34254014 -.00000826  10940-1 -58165+0 4    12
2 03129  74.0535 201.6448 0020032  67.8696 348.6304 13.18891494    12
1 03131U 68011B   26096.39962645 -.00001707 -12558-1 -66297+0 4    18
2 03131  74.0522 220.3655 0023135  82.9724 333.6285 13.18620894    12
1 03133U 68012A   26096.44907546 -.00000861  17951+0  84596-1 4    18
2 03133  90.0211 273.9267 0071202 188.9713 199.9161 13.52400249    17
1 03137U 68012B   26096.08412678  .00005414  15313+0  12316+0 4    16
2 03137  90.0225 273.2997 0063300 281.2495 205.0647 13.51141010    18
1 03158U 68023A   26096.18681205  .00000416 -35090-1  49194-1 4    16
2 03158  65.3353  23.1990 0041355 271.7993 248.8530 13.98344421    14
1 03164U 61015HZ  26095.86859580 -.00001275 -34082-1  27156+0 4    11
2 03164  66.7466 270.7397 0050397  97.2188  17.8985 14.04789750    19
